0 SL-3 R/B
1 16111U 85090B   13282.49113749  .00007957  00000-0  28651-3 0  2644
2 16111 097.4142 359.6448 0027912 201.0097 158.9999 15.28480866536808
0 SL-3 R/B
1 16111U 85090B   13283.80046802  .00008615  00000-0  30980-3 0  2667
2 16111 097.4143 000.9479 0028021 196.3679 163.6659 15.28492743537009
0 SL-3 R/B
1 16111U 85090B   13283.80048338  .00005071  00000-0  18111-3 0  2657
2 16111 097.4138 000.9453 0027625 196.1128 163.9750 15.28484262537003
0 SL-3 R/B
1 16111U 85090B   13286.15722992  .00006739  00000-0  24271-3 0  2682
2 16111 097.4148 003.2942 0028214 187.9480 172.1316 15.28525182537363
0 SL-3 R/B
1 16111U 85090B   13287.20466366  .00007209  00000-0  25933-3 0  2699
2 16111 097.4150 004.3371 0028310 184.3190 175.7810 15.28535349537522
0 SL-3 R/B
1 16111U 85090B   13288.44847933  .00010437  00000-0  37375-3 0  2701
2 16111 097.4153 005.5758 0028423 179.9436 180.1812 15.28558191537718
0 SL-3 R/B
1 16111U 85090B   13289.49588848  .00008764  00000-0  31414-3 0  2713
2 16111 097.4153 006.6190 0028549 176.2170 183.9291 15.28577171537872
0 SL-3 R/B
1 16111U 85090B   13290.73967179  .00009474  00000-0  33913-3 0  2726
2 16111 097.4149 007.8573 0028594 171.8870 188.2838 15.28594646538066
0 SL-3 R/B
1 16111U 85090B   13292.17982198  .00008115  00000-0  29069-3 0  2733
2 16111 097.4145 009.2916 0028713 166.8762 193.3232 15.28617671538289
0 SL-3 R/B
1 16111U 85090B   13293.48903115  .00008288  00000-0  29662-3 0  2741
2 16111 097.4140 010.5954 0028836 162.3251 197.8999 15.28636592538485
0 SL-3 R/B
1 16111U 85090B   13294.79822378  .00010161  00000-0  36274-3 0  2758
2 16111 097.4134 011.8986 0028895 157.8417 202.4079 15.28653583538688
0 SL-3 R/B
1 16111U 85090B   13296.17285911  .00009544  00000-0  34063-3 0  2766
2 16111 097.4130 013.2672 0029002 153.0603 207.2150 15.28678578538895
